SL-8 R/B                
1 19257U 88053B   26085.28074137  .00000329  00000+0  11502-3 0  9996
2 19257  74.0452  81.8808 0021503 258.9707 202.9188 14.38927029978986
COSMOS 1975             
1 19573U 88093A   26085.29110404  .00005987  00000+0  21558-3 0  9997
2 19573  82.5168 101.0138 0013313 110.0942 250.1732 15.28287240 21944
SL-14 R/B               
1 19574U 88093B   26085.30791177  .00000569  00000+0  62703-4 0  9991
2 19574  82.5336  26.4456 0020332 347.6583 126.0224 14.85675758  3486
SL-16 R/B               
1 19650U 88102B   26085.29219424 -.00000229  00000+0 -91395-4 0  9999
2 19650  70.9976 116.5644 0015004 336.4734  23.5701 14.16154186929249
INTERCOSMOS 24          
1 20261U 89080A   26085.32429410  .00000537  00000+0  15910-3 0  9995
2 20261  82.6011  93.5684 1186802 254.1734  92.5627 12.59579511668891
SL-14 R/B               
1 20262U 89080C   26085.27975818  .00000397  00000+0  11124-3 0  9995
2 20262  82.5961 162.5407 1230874 146.8477 221.6284 12.50509749662227
DELTA 1 R/B             
1 20323U 89089B   26085.10597550  .00000317  00000+0  86752-4 0  9999
2 20323  97.0694 289.9320 0070624  71.1509 289.7331 14.50676071898119
ARIANE 40 R/B           
1 20443U 90005H   26085.14388303  .00000265  00000+0  97702-4 0  9999
2 20443  98.3049 145.3124 0010853 150.0463 210.1349 14.39880961895173
DELTA 2 R/B(1)          
1 20453U 90008B   26085.23805440  .00069454  00000+0  76494-3 0  9998
2 20453  35.6039  66.0740 0078697  53.1388 307.6533 15.58109959928716
COSMOS 2058             
1 20465U 90010A   26085.26582260  .00004552  00000+0  26739-3 0  9994
2 20465  82.4683  31.0934 0007437 279.6931  80.3459 15.11465822944740
SL-14 R/B               
1 20466U 90010B   26084.94145977  .00000491  00000+0  56574-4 0  9998
2 20466  82.4992 252.1182 0018465 244.5080 115.4226 14.83583098930891
SL-14 R/B               
1 20511U 90018B   26085.31244000  .00000465  00000+0  55349-4 0  9996
2 20511  82.5233 207.5551 0017122  41.4154 318.8355 14.82161042925043
HST                     
1 20580U 90037B   26085.25385162  .00007258  00000+0  23706-3 0  9999
2 20580  28.4723 286.9845 0001573 319.9838  40.0642 15.29731597775859
SL-16 R/B               
1 20625U 90046B   26084.95631898  .00000194  00000+0  12460-3 0  9992
2 20625  70.9952 263.7481 0016296 278.3361  81.5914 14.15014109850696
COSMOS 2084             
1 20663U 90055A   26085.25866395  .00002334  00000+0  17403-3 0  9990
2 20663  62.7892 279.0621 0014463 195.0020 165.0653 15.05737838938817
SL-6 R/B(2)             
1 20666U 90055D   26085.19751570  .00001926  00000+0  15347-3 0  9995
2 20666  62.7831 197.7089 0027500 350.8432   9.2162 15.03672611940677
SL-8 R/B                
1 20775U 90078B   26084.90138620  .00012696  00000+0  37578-3 0  9990
2 20775  82.9019 236.7224 0358956 319.3529  38.1387 14.89557012811716
