[{"OBJECT_NAME":"SL-8 R/B","OBJECT_ID":"1988-053B","EPOCH":"2026-03-26T06:44:16.054368","MEAN_MOTION":14.38927029,"ECCENTRICITY":0.00215034,"INCLINATION":74.0452,"RA_OF_ASC_NODE":81.8808,"ARG_OF_PERICENTER":258.9707,"MEAN_ANOMALY":202.9188,"EPHEMERIS_TYPE":0,"CLASSIFICATION_TYPE":"U","NORAD_CAT_ID":19257,"ELEMENT_SET_NO":999,"REV_AT_EPOCH":97898,"BSTAR":0.00011502068,"MEAN_MOTION_DOT":3.29e-6,"MEAN_MOTION_DDOT":0},{"OBJECT_NAME":"COSMOS 1975","OBJECT_ID":"1988-093A","EPOCH":"2026-03-26T06:59:11.389056","MEAN_MOTION":15.2828724,"ECCENTRICITY":0.00133132,"INCLINATION":82.5168,"RA_OF_ASC_NODE":101.0138,"ARG_OF_PERICENTER":110.0942,"MEAN_ANOMALY":250.1732,"EPHEMERIS_TYPE":0,"CLASSIFICATION_TYPE":"U","NORAD_CAT_ID":19573,"ELEMENT_SET_NO":999,"REV_AT_EPOCH":2194,"BSTAR":0.00021557765,"MEAN_MOTION_DOT":5.987e-5,"MEAN_MOTION_DDOT":0},{"OBJECT_NAME":"SL-14 R/B","OBJECT_ID":"1988-093B","EPOCH":"2026-03-26T07:23:23.576928","MEAN_MOTION":14.85675758,"ECCENTRICITY":0.00203327,"INCLINATION":82.5336,"RA_OF_ASC_NODE":26.4456,"ARG_OF_PERICENTER":347.6583,"MEAN_ANOMALY":126.0224,"EPHEMERIS_TYPE":0,"CLASSIFICATION_TYPE":"U","NORAD_CAT_ID":19574,"ELEMENT_SET_NO":999,"REV_AT_EPOCH":348,"BSTAR":6.270313e-5,"MEAN_MOTION_DOT":5.69e-6,"MEAN_MOTION_DDOT":0},{"OBJECT_NAME":"SL-16 R/B","OBJECT_ID":"1988-102B","EPOCH":"2026-03-26T07:00:45.582336","MEAN_MOTION":14.16154186,"ECCENTRICITY":0.00150049,"INCLINATION":70.9976,"RA_OF_ASC_NODE":116.5644,"ARG_OF_PERICENTER":336.4734,"MEAN_ANOMALY":23.5701,"EPHEMERIS_TYPE":0,"CLASSIFICATION_TYPE":"U","NORAD_CAT_ID":19650,"ELEMENT_SET_NO":999,"REV_AT_EPOCH":92924,"BSTAR":-9.139538e-5,"MEAN_MOTION_DOT":-2.29e-6,"MEAN_MOTION_DDOT":0},{"OBJECT_NAME":"INTERCOSMOS 24","OBJECT_ID":"1989-080A","EPOCH":"2026-03-26T07:46:59.010240","MEAN_MOTION":12.59579511,"ECCENTRICITY":0.11868022,"INCLINATION":82.6011,"RA_OF_ASC_NODE":93.5684,"ARG_OF_PERICENTER":254.1734,"MEAN_ANOMALY":92.5627,"EPHEMERIS_TYPE":0,"CLASSIFICATION_TYPE":"U","NORAD_CAT_ID":20261,"ELEMENT_SET_NO":999,"REV_AT_EPOCH":66889,"BSTAR":0.00015909515,"MEAN_MOTION_DOT":5.37e-6,"MEAN_MOTION_DDOT":0},{"OBJECT_NAME":"SL-14 R/B","OBJECT_ID":"1989-080C","EPOCH":"2026-03-26T06:42:51.106752","MEAN_MOTION":12.50509749,"ECCENTRICITY":0.12308749,"INCLINATION":82.5961,"RA_OF_ASC_NODE":162.5407,"ARG_OF_PERICENTER":146.8477,"MEAN_ANOMALY":221.6284,"EPHEMERIS_TYPE":0,"CLASSIFICATION_TYPE":"U","NORAD_CAT_ID":20262,"ELEMENT_SET_NO":999,"REV_AT_EPOCH":66222,"BSTAR":0.00011124485,"MEAN_MOTION_DOT":3.97e-6,"MEAN_MOTION_DDOT":0},{"OBJECT_NAME":"DELTA 1 R/B","OBJECT_ID":"1989-089B","EPOCH":"2026-03-26T02:32:36.283200","MEAN_MOTION":14.50676071,"ECCENTRICITY":0.00706247,"INCLINATION":97.0694,"RA_OF_ASC_NODE":289.932,"ARG_OF_PERICENTER":71.1509,"MEAN_ANOMALY":289.7331,"EPHEMERIS_TYPE":0,"CLASSIFICATION_TYPE":"U","NORAD_CAT_ID":20323,"ELEMENT_SET_NO":999,"REV_AT_EPOCH":89811,"BSTAR":8.6751749e-5,"MEAN_MOTION_DOT":3.17e-6,"MEAN_MOTION_DDOT":0},{"OBJECT_NAME":"ARIANE 40 R/B","OBJECT_ID":"1990-005H","EPOCH":"2026-03-26T03:27:11.493792","MEAN_MOTION":14.39880961,"ECCENTRICITY":0.00108534,"INCLINATION":98.3049,"RA_OF_ASC_NODE":145.3124,"ARG_OF_PERICENTER":150.0463,"MEAN_ANOMALY":210.1349,"EPHEMERIS_TYPE":0,"CLASSIFICATION_TYPE":"U","NORAD_CAT_ID":20443,"ELEMENT_SET_NO":999,"REV_AT_EPOCH":89517,"BSTAR":9.7702013e-5,"MEAN_MOTION_DOT":2.65e-6,"MEAN_MOTION_DDOT":0},{"OBJECT_NAME":"DELTA 2 R/B(1)","OBJECT_ID":"1990-008B","EPOCH":"2026-03-26T05:42:47.900160","MEAN_MOTION":15.58109959,"ECCENTRICITY":0.00786977,"INCLINATION":35.6039,"RA_OF_ASC_NODE":66.074,"ARG_OF_PERICENTER":53.1388,"MEAN_ANOMALY":307.6533,"EPHEMERIS_TYPE":0,"CLASSIFICATION_TYPE":"U","NORAD_CAT_ID":20453,"ELEMENT_SET_NO":999,"REV_AT_EPOCH":92871,"BSTAR":0.00076493582,"MEAN_MOTION_DOT":0.00069454,"MEAN_MOTION_DDOT":0},{"OBJECT_NAME":"COSMOS 2058","OBJECT_ID":"1990-010A","EPOCH":"2026-03-26T06:22:47.072640","MEAN_MOTION":15.11465822,"ECCENTRICITY":0.0007437,"INCLINATION":82.4683,"RA_OF_ASC_NODE":31.0934,"ARG_OF_PERICENTER":279.6931,"MEAN_ANOMALY":80.3459,"EPHEMERIS_TYPE":0,"CLASSIFICATION_TYPE":"U","NORAD_CAT_ID":20465,"ELEMENT_SET_NO":999,"REV_AT_EPOCH":94474,"BSTAR":0.00026738666,"MEAN_MOTION_DOT":4.552e-5,"MEAN_MOTION_DDOT":0},{"OBJECT_NAME":"SL-14 R/B","OBJECT_ID":"1990-010B","EPOCH":"2026-03-25T22:35:42.124128","MEAN_MOTION":14.83583098,"ECCENTRICITY":0.0018465,"INCLINATION":82.4992,"RA_OF_ASC_NODE":252.1182,"ARG_OF_PERICENTER":244.508,"MEAN_ANOMALY":115.4226,"EPHEMERIS_TYPE":0,"CLASSIFICATION_TYPE":"U","NORAD_CAT_ID":20466,"ELEMENT_SET_NO":999,"REV_AT_EPOCH":93089,"BSTAR":5.6574e-5,"MEAN_MOTION_DOT":4.91e-6,"MEAN_MOTION_DDOT":0},{"OBJECT_NAME":"SL-14 R/B","OBJECT_ID":"1990-018B","EPOCH":"2026-03-26T07:29:54.816000","MEAN_MOTION":14.82161042,"ECCENTRICITY":0.00171227,"INCLINATION":82.5233,"RA_OF_ASC_NODE":207.5551,"ARG_OF_PERICENTER":41.4154,"MEAN_ANOMALY":318.8355,"EPHEMERIS_TYPE":0,"CLASSIFICATION_TYPE":"U","NORAD_CAT_ID":20511,"ELEMENT_SET_NO":999,"REV_AT_EPOCH":92504,"BSTAR":5.5348634e-5,"MEAN_MOTION_DOT":4.65e-6,"MEAN_MOTION_DDOT":0},{"OBJECT_NAME":"HST","OBJECT_ID":"1990-037B","EPOCH":"2026-03-26T06:05:32.779968","MEAN_MOTION":15.29731597,"ECCENTRICITY":0.00015734,"INCLINATION":28.4723,"RA_OF_ASC_NODE":286.9845,"ARG_OF_PERICENTER":319.9838,"MEAN_ANOMALY":40.0642,"EPHEMERIS_TYPE":0,"CLASSIFICATION_TYPE":"U","NORAD_CAT_ID":20580,"ELEMENT_SET_NO":999,"REV_AT_EPOCH":77585,"BSTAR":0.00023705744,"MEAN_MOTION_DOT":7.258e-5,"MEAN_MOTION_DDOT":0},{"OBJECT_NAME":"SL-16 R/B","OBJECT_ID":"1990-046B","EPOCH":"2026-03-25T22:57:05.959872","MEAN_MOTION":14.15014109,"ECCENTRICITY":0.00162969,"INCLINATION":70.9952,"RA_OF_ASC_NODE":263.7481,"ARG_OF_PERICENTER":278.3361,"MEAN_ANOMALY":81.5914,"EPHEMERIS_TYPE":0,"CLASSIFICATION_TYPE":"U","NORAD_CAT_ID":20625,"ELEMENT_SET_NO":999,"REV_AT_EPOCH":85069,"BSTAR":0.0001245971,"MEAN_MOTION_DOT":1.94e-6,"MEAN_MOTION_DDOT":0},{"OBJECT_NAME":"COSMOS 2084","OBJECT_ID":"1990-055A","EPOCH":"2026-03-26T06:12:28.565280","MEAN_MOTION":15.05737838,"ECCENTRICITY":0.00144635,"INCLINATION":62.7892,"RA_OF_ASC_NODE":279.0621,"ARG_OF_PERICENTER":195.002,"MEAN_ANOMALY":165.0653,"EPHEMERIS_TYPE":0,"CLASSIFICATION_TYPE":"U","NORAD_CAT_ID":20663,"ELEMENT_SET_NO":999,"REV_AT_EPOCH":93881,"BSTAR":0.00017403497,"MEAN_MOTION_DOT":2.334e-5,"MEAN_MOTION_DDOT":0},{"OBJECT_NAME":"SL-6 R/B(2)","OBJECT_ID":"1990-055D","EPOCH":"2026-03-26T04:44:25.356480","MEAN_MOTION":15.03672611,"ECCENTRICITY":0.00275006,"INCLINATION":62.7831,"RA_OF_ASC_NODE":197.7089,"ARG_OF_PERICENTER":350.8432,"MEAN_ANOMALY":9.2162,"EPHEMERIS_TYPE":0,"CLASSIFICATION_TYPE":"U","NORAD_CAT_ID":20666,"ELEMENT_SET_NO":999,"REV_AT_EPOCH":94067,"BSTAR":0.00015347498,"MEAN_MOTION_DOT":1.926e-5,"MEAN_MOTION_DDOT":0},{"OBJECT_NAME":"SL-8 R/B","OBJECT_ID":"1990-078B","EPOCH":"2026-03-25T21:37:59.767680","MEAN_MOTION":14.89557012,"ECCENTRICITY":0.0358956,"INCLINATION":82.9019,"RA_OF_ASC_NODE":236.7224,"ARG_OF_PERICENTER":319.3529,"MEAN_ANOMALY":38.1387,"EPHEMERIS_TYPE":0,"CLASSIFICATION_TYPE":"U","NORAD_CAT_ID":20775,"ELEMENT_SET_NO":999,"REV_AT_EPOCH":81171,"BSTAR":0.00037578,"MEAN_MOTION_DOT":0.00012696,"MEAN_MOTION_DDOT":0}]
